ONEWEB-0235             
1 48771U 21045E   25060.81229619  .00000116  00000+0  27388-3 0  9998
2 48771  87.9133 353.2757 0002436  85.4652 274.6756 13.15548255183397
ONEWEB-0242             
1 48772U 21045F   25060.80595671  .00000261  00000+0  66002-3 0  9999
2 48772  87.9131 353.2633 0002021  84.3849 275.7512 13.15549161183440
ONEWEB-0241             
1 48773U 21045G   25060.79328656  .00000191  00000+0  47232-3 0  9991
2 48773  87.9139 353.3353 0002210  74.4069 285.7305 13.15548295183351
ONEWEB-0243             
1 48774U 21045H   25060.36862901 -.00000038  00000+0 -13620-3 0  9997
2 48774  87.9147 353.3818 0002310  86.3963 273.7431 13.15549071182194
ONEWEB-0222             
1 48775U 21045J   25060.80833539  .00000176  00000+0  43239-3 0  9992
2 48775  87.9130 353.2710 0002049  76.8161 283.3198 13.15549096183410
ONEWEB-0244             
1 48776U 21045K   25060.83446255 -.00000047  00000+0 -15840-3 0  9997
2 48776  87.9132 353.2444 0001949  84.7369 275.3984 13.15549121183988
ONEWEB-0247             
1 48777U 21045L   25060.29889536 -.00000046  00000+0 -15711-3 0  9997
2 48777  87.9141 353.4113 0002827  88.6755 271.4699 13.15549290182236
ONEWEB-0245             
1 48778U 21045M   25060.21809840  .00000118  00000+0  27973-3 0  9991
2 48778  87.9135 353.4002 0002056  73.6185 286.5171 13.15548611183321
